BLUEBON                 
1 62688U 25009CH  26068.70316231  .00010452  00000+0  37313-3 0  9992
2 62688  97.4017 152.2033 0001193  43.3900 316.7434 15.29047253 63767
STARLINK-35987          
1 66860U 25281N   26068.14110278  .00036526  00000+0  13311-2 0  9992
2 66860  43.0030 346.3973 0001766 282.2881  77.7773 15.27558690 16108
